ONEWEB-0685             
1 54679U 22166AP  24200.56607058  .00000023  00000+0  24284-4 0  9991
2 54679  87.9280  23.0600 0002105  89.3618 270.7757 13.21826180 79127
ONEWEB-0712             
1 54680U 22166AQ  24200.44772080  .00000104  00000+0  23688-3 0  9994
2 54680  87.9106   7.8909 0001643  77.6712 282.4603 13.17104730 80115
ONEWEB-0714             
1 54681U 22166AR  24200.57236771 -.00000250  00000+0 -63710-3 0  9995
2 54681  87.9282  23.0453 0002120  88.5706 271.5671 13.21825258 79246
ONEWEB-0532             
1 55140U 23004A   24200.57208818 -.00000194  00000+0 -53402-3 0  9993
2 55140  87.9188 144.9628 0001973  96.0754 264.0602 13.17648772 75584
ONEWEB-0533             
1 55141U 23004B   24200.51508734 -.00000214  00000+0 -63023-3 0  9991
2 55141  87.8963 129.7754 0002145  77.8843 282.2526 13.12441868 76416
ONEWEB-0541             
1 55142U 23004C   24200.38016632 -.00000452  00000+0 -13106-2 0  9998
2 55142  87.8983 160.1426 0002072  83.6381 276.4983 13.11416119 74358
ONEWEB-0543             
1 55143U 23004D   24200.49342864 -.00000167  00000+0 -45510-3 0  9998
2 55143  87.9145 114.6435 0002149  68.3532 291.7829 13.18685460 77612
ONEWEB-0544             
1 55144U 23004E   24200.48709330 -.00000173  00000+0 -47249-3 0  9991
2 55144  87.9143 114.6300 0001825  77.9276 282.2060 13.18685287 77612
